NORAD_CAT_ID,OBJECT_NAME,OBJECT_TYPE,EPOCH,MEAN_MOTION,ECCENTRICITY,INCLINATION,RA_OF_ASC_NODE,ARG_OF_PERICENTER,MEAN_ANOMALY,BSTAR,MEAN_MOTION_DOT,MEAN_MOTION_DDOT,TLE_LINE0,TLE_LINE1,TLE_LINE2,SEMIMAJOR_AXIS,PERIOD,APOGEE,PERIGEE,DECAYED
52273.0,STARLINK-3782,PAYLOAD,2022-08-25 14:00:01,15.08831454,0.000159,53.2167,139.6022,69.6539,169.946,0.0013076,0.00020579,0.0,0 STARLINK-3782,1 52273U 22041N   22237.58334491  .00020579  00000-0  13076-2 0  9993,2 52273  53.2167 139.6022 0001590  69.6539 169.9460 15.08831454  1309,6917.906999999997,95.438,540.871,538.672,0.0
52273.0,STARLINK-3782,PAYLOAD,2022-08-25 22:00:00,15.08844198,0.0001641999999999,53.2169,138.1071,66.5914,184.605,-0.0023839,-0.00038032,0.0,0 STARLINK-3782,1 52273U 22041N   22237.91667824 -.00038032  00000-0 -23839-2 0  9992,2 52273  53.2169 138.1071 0001642  66.5914 184.6050 15.08844198 20714,6917.868,95.437,540.868,538.597,0.0
52273.0,STARLINK-3782,PAYLOAD,2022-08-26 14:00:01,15.08806763,0.0001558,53.217,135.1133,69.8918,204.5371,0.0028856,0.00045894,0.0,0 STARLINK-3782,1 52273U 22041N   22238.58335648  .00045894  00000-0  28856-2 0  9998,2 52273  53.2170 135.1133 0001558  69.8918 204.5371 15.08806763  1306,6917.982,95.44,540.925,538.769,0.0
52273.0,STARLINK-3782,PAYLOAD,2022-08-26 22:00:00,15.08845986,0.0001654,53.2171,133.6183,66.9897,218.9519,-0.0013344,-0.00021466,0.0,0 STARLINK-3782,1 52273U 22041N   22238.91667824 -.00021466  00000-0 -13344-2 0  9996,2 52273  53.2171 133.6183 0001654  66.9897 218.9519 15.08845986  1309,6917.861999999999,95.437,540.871,538.5830000000002,0.0
52273.0,STARLINK-3782,PAYLOAD,2022-08-27 14:00:01,15.08820476,0.0001571999999999,53.2169,130.6243,72.3527,236.7884,0.0030946,0.00049281,0.0,0 STARLINK-3782,1 52273U 22041N   22239.58334491  .00049281  00000-0  30946-2 0  9991,2 52273  53.2169 130.6243 0001572  72.3527 236.7884 15.08820476  1300,6917.94,95.439,540.893,538.7180000000002,0.0
52273.0,STARLINK-3782,PAYLOAD,2022-08-27 22:00:00,15.08861228,0.0001648,53.2169,129.1294,68.0904,252.6455,-0.0012319,-0.00019852,0.0,0 STARLINK-3782,1 52273U 22041N   22239.91667824 -.00019852  00000-0 -12319-2 0  9994,2 52273  53.2169 129.1294 0001648  68.0904 252.6455 15.08861228 21015,6917.816,95.436,540.821,538.54,0.0
52273.0,STARLINK-3782,PAYLOAD,2022-08-28 14:00:01,15.08812049,0.000146,53.2164,126.1352,73.8209,270.1494,0.0032553,0.00051862,0.0,0 STARLINK-3782,1 52273U 22041N   22240.58334491  .00051862  00000-0  32553-2 0  9997,2 52273  53.2164 126.1352 0001460  73.8209 270.1494 15.08812049  1301,6917.965999999999,95.439,540.841,538.821,0.0
52273.0,STARLINK-3782,PAYLOAD,2022-08-28 22:00:00,15.08850458,0.000155,53.2162,124.6403,68.2448,287.3091,-0.001215,-0.00019578,0.0,0 STARLINK-3782,1 52273U 22041N   22240.91667824 -.00019578  00000-0 -12150-2 0  9994,2 52273  53.2162 124.6403 0001550  68.2448 287.3091 15.08850458  1301,6917.848000000001,95.437,540.786,538.641,0.0
52273.0,STARLINK-3782,PAYLOAD,2022-08-29 14:00:01,15.08796887,0.0001371,53.2156,121.6459,74.512,304.24,0.0030845,0.00049086,0.0,0 STARLINK-3782,1 52273U 22041N   22241.58334491  .00049086  00000-0  30845-2 0  9995,2 52273  53.2156 121.6459 0001371  74.5120 304.2400 15.08796887  1308,6918.012,95.44,540.826,538.929,0.0
52273.0,STARLINK-3782,PAYLOAD,2022-08-29 22:00:00,15.08830884,0.0001484,53.2155,120.1512,68.0416,322.2741,-0.0011851,-0.00019095,0.0,0 STARLINK-3782,1 52273U 22041N   22241.91667824 -.00019095  00000-0 -11851-2 0  9996,2 52273  53.2155 120.1512 0001484  68.0416 322.2741 15.08830884  1306,6917.908,95.438,540.8,538.747,0.0
52273.0,STARLINK-3782,PAYLOAD,2022-08-30 06:00:00,15.088416199999998,0.0001462,53.2151,118.6545,65.0612,336.829,-0.0011023,-0.00017789,0.0,0 STARLINK-3782,1 52273U 22041N   22242.25001157 -.00017789  00000-0 -11023-2 0  9994,2 52273  53.2151 118.6545 0001462  65.0612 336.8290 15.08841620 21370,6917.875,95.437,540.752,538.729,0.0
52273.0,STARLINK-3782,PAYLOAD,2022-08-30 14:00:01,15.08813899,0.0001425,53.215,117.1566,74.9998,338.4819,0.0028071,0.00044638,0.0,0 STARLINK-3782,1 52273U 22041N   22242.58334491  .00044638  00000-0  28071-2 0  9992,2 52273  53.2150 117.1566 0001425  74.9998 338.4819 15.08813899  1304,6917.96,95.439,540.811,538.839,0.0
52273.0,STARLINK-3782,PAYLOAD,2022-08-30 22:00:00,15.08845248,0.0001547,53.215,115.6618,68.1946,356.872,-0.00092594,-0.00014996,0.0,0 STARLINK-3782,1 52273U 22041N   22242.91667824 -.00014996  00000-0 -92594-3 0  9996,2 52273  53.2150 115.6618 0001547  68.1946 356.8720 15.08845248  1306,6917.864000000001,95.437,540.8,538.659,0.0
52273.0,STARLINK-3782,PAYLOAD,2022-08-31 12:00:00,15.08822985,0.0001435,53.215,113.0413,73.3953,281.9771,0.0031649,0.00050418,0.0,0 STARLINK-3782,1 52273U 22041N   22243.50001157  .00050418  00000-0  31649-2 0  9993,2 52273  53.2150 113.0413 0001435  73.3953 281.9771 15.08822985 21559,6917.932,95.439,540.79,538.805,0.0
52273.0,STARLINK-3782,PAYLOAD,2022-08-31 14:00:01,15.08835514,0.000147,53.2151,112.667,74.4254,13.842,0.0022405999999999,0.00035547,0.0,0 STARLINK-3782,1 52273U 22041N   22243.58334491  .00035547  00000-0  22406-2 0  9998,2 52273  53.2151 112.6670 0001470  74.4254  13.8420 15.08835514  1301,6917.894,95.438,540.776,538.742,0.0
52273.0,STARLINK-3782,PAYLOAD,2022-08-31 22:00:00,15.08857216,0.0001541999999999,53.2151,111.1722,66.7777,33.0982,-0.003017,-0.00048006,0.0,0 STARLINK-3782,1 52273U 22041N   22243.91667824 -.00048006  00000-0 -30170-2 0  9997,2 52273  53.2151 111.1722 0001542  66.7777  33.0982 15.08857216 21624,6917.828,95.436,540.759,538.626,0.0
52273.0,STARLINK-3782,PAYLOAD,2022-09-01 14:00:01,15.08827356,0.0001448,53.2156,108.1774,73.0184,50.107,0.0021445,0.00033995,0.0,0 STARLINK-3782,1 52273U 22041N   22244.58335648  .00033995  00000-0  21445-2 0  9991,2 52273  53.2156 108.1774 0001448  73.0184  50.1070 15.08827356 21721,6917.919,95.438,540.786,538.7819999999998,0.0
52273.0,STARLINK-3782,PAYLOAD,2022-09-01 22:00:00,15.08845285,0.0001561999999999,53.2157,106.6827,65.3081,69.351,-0.00031164,-5.245e-05,0.0,0 STARLINK-3782,1 52273U 22041N   22244.91667824 -.00005245  00000-0 -31164-3 0  9991,2 52273  53.2157 106.6827 0001562  65.3081  69.3510 15.08845285  1305,6917.864000000001,95.437,540.81,538.649,0.0
52273.0,STARLINK-3782,PAYLOAD,2022-09-02 06:00:00,15.0887636,0.0001479,53.2158,105.1857,64.457,81.7952,-0.0038513,-0.00061122,0.0,0 STARLINK-3782,1 52273U 22041N   22245.25001157 -.00061122  00000-0 -38513-2 0  9990,2 52273  53.2158 105.1857 0001479  64.4570  81.7952 15.08876360 21828,6917.769,95.435,540.6569999999998,538.611,0.0
52273.0,STARLINK-3782,PAYLOAD,2022-09-02 14:00:01,15.08824049,0.0001384,53.2163,103.6881,71.9979,85.8675,0.0010853,0.00017019,0.0,0 STARLINK-3782,1 52273U 22041N   22245.58334491  .00017019  00000-0  10853-2 0  9997,2 52273  53.2163 103.6881 0001384  71.9979  85.8675 15.08824049  1300,6917.929,95.439,540.752,538.837,0.0
52273.0,STARLINK-3782,PAYLOAD,2022-09-02 22:00:01,15.08827636,0.0001489,53.2164,102.1935,63.1578,106.3562,3.0461e-05,1.97e-06,0.0,0 STARLINK-3782,1 52273U 22041N   22245.91668981  .00000197  00000-0  30461-4 0  9996,2 52273  53.2164 102.1935 0001489  63.1578 106.3562 15.08827636 21928,6917.918000000002,95.438,540.813,538.753,0.0
52273.0,STARLINK-3782,PAYLOAD,2022-09-03 14:00:01,15.08837365,0.0001386999999999,53.2169,99.1992,73.0104,119.6148,0.0014738,0.00023244,0.0,0 STARLINK-3782,1 52273U 22041N   22246.58334491  .00023244  00000-0  14738-2 0  9991,2 52273  53.2169  99.1992 0001387  73.0104 119.6148 15.08837365  1300,6917.888000000001,95.438,540.7130000000002,538.794,0.0
52273.0,STARLINK-3782,PAYLOAD,2022-09-03 22:00:00,15.08848299,0.0001515,53.2168,97.7046,63.8791,140.3526,-0.00021328,-3.682e-05,0.0,0 STARLINK-3782,1 52273U 22041N   22246.91667824 -.00003682  00000-0 -21328-3 0  9997,2 52273  53.2168  97.7046 0001515  63.8791 140.3526 15.08848299 22071,6917.855,95.437,540.768,538.672,0.0
52273.0,STARLINK-3782,PAYLOAD,2022-09-04 14:00:01,15.08837129,0.0001468,53.2171,94.7102,75.5601,151.938,0.0013898,0.00021898,0.0,0 STARLINK-3782,1 52273U 22041N   22247.58335648  .00021898  00000-0  13898-2 0  9996,2 52273  53.2171  94.7102 0001468  75.5601 151.9380 15.08837129  1301,6917.889,95.438,540.77,538.739,0.0
52273.0,STARLINK-3782,PAYLOAD,2022-09-04 16:00:00,15.08854872,0.0001465,53.2171,94.3366,73.4779,246.8518,-0.00053553,-8.804e-05,0.0,0 STARLINK-3782,1 52273U 22041N   22247.66667824 -.00008804  00000-0 -53553-3 0  9996,2 52273  53.2171  94.3366 0001465  73.4779 246.8518 15.08854872  1300,6917.835,95.437,540.7130000000002,538.686,0.0
52273.0,STARLINK-3782,PAYLOAD,2022-09-05 06:00:00,15.08845835,0.0001356,53.2167,91.7182,67.5231,183.121,-0.0015237999999999,-0.00024461,0.0,0 STARLINK-3782,1 52273U 22041N   22248.25001157 -.00024461  00000-0 -15238-2 0  9997,2 52273  53.2167  91.7182 0001356  67.5231 183.1210 15.08845835 22278,6917.863,95.437,540.6659999999998,538.789,0.0
52273.0,STARLINK-3782,PAYLOAD,2022-09-05 14:00:01,15.08844645,0.0001315,53.2168,90.2215,75.5822,186.648,0.00067238,0.00010431,0.0,0 STARLINK-3782,1 52273U 22041N   22248.58334491  .00010431  00000-0  67238-3 0  9991,2 52273  53.2168  90.2215 0001315  75.5822 186.6480 15.08844645  1306,6917.866,95.437,540.641,538.821,0.0
52273.0,STARLINK-3782,PAYLOAD,2022-09-05 22:00:00,15.08823469,0.0001381,53.2166,88.7269,64.0658,209.7663,-0.00032296,-5.422e-05,0.0,0 STARLINK-3782,1 52273U 22041N   22248.91667824 -.00005422  00000-0 -32296-3 0  9999,2 52273  53.2166  88.7269 0001381  64.0658 209.7663 15.08823469  1309,6917.931,95.439,540.751,538.841,0.0
52273.0,STARLINK-3782,PAYLOAD,2022-09-06 06:00:00,15.08836198,0.0001239,53.2163,87.2293,66.8358,218.5695,-0.0014366,-0.00023076,0.0,0 STARLINK-3782,1 52273U 22041N   22249.25001157 -.00023076  00000-0 -14366-2 0  9990,2 52273  53.2163  87.2293 0001239  66.8358 218.5695 15.08836198 22428,6917.892,95.438,540.614,538.9,0.0
